IRIDIUM 106             
1 41917U 17003A   26016.97688378  .00000246  00000+0  80794-4 0  9997
2 41917  86.4014 151.7450 0002194  85.3259 274.8188 14.34217888471532
IRIDIUM 103             
1 41918U 17003B   26016.89442524  .00000007  00000+0 -47081-5 0  9999
2 41918  86.4020 151.6802 0002290 101.7828 258.3624 14.34217422471549
IRIDIUM 109             
1 41919U 17003C   26016.90076745 -.00000014  00000+0 -11940-4 0  9993
2 41919  86.4020 151.7343 0001975  96.7838 263.3583 14.34217254471514
IRIDIUM 102             
1 41920U 17003D   26016.72951614  .00000065  00000+0  16306-4 0  9997
2 41920  86.4013 151.7324 0002010  97.6378 262.5047 14.34217081471577
IRIDIUM 105             
1 41921U 17003E   26016.70024098  .00000129  00000+0  38955-4 0  9998
2 41921  86.3998 120.2321 0002130  97.0718 263.0720 14.34215161473429
IRIDIUM 104             
1 41922U 17003F   26016.88173881  .00000001  00000+0 -66948-5 0  9997
2 41922  86.4018 151.7094 0001949 106.0650 254.0760 14.34217609471581
IRIDIUM 114             
1 41923U 17003G   26016.88808216  .00000032  00000+0  44745-5 0  9999
2 41923  86.4019 151.6905 0001985 100.9169 259.2250 14.34217520471562
IRIDIUM 108             
1 41924U 17003H   26016.70706634 -.00000074  00000+0 -33589-4 0  9993
2 41924  86.3984 120.1164 0001854  95.4204 264.7203 14.34216984473399
